{
  "type": "FeatureCollection",
  "name": "Mumbai_Kurla_Drainage_Nodes",
  "metadata": {
    "study_area": "Kurla-BKC Basin, Mumbai",
    "data_classification": "SIMULATED_DATA (Calibrated Prototype Stormwater Network)"
  },
  "features": [
    {
      "type": "Feature",
      "geometry": {
        "type": "Point",
        "coordinates": [
          72.8788,
          19.068
        ]
      },
      "properties": {
        "node_id": "IN_KURLA_01",
        "name": "Inlet Kurla Station (LBS)",
        "node_type": "inlet",
        "invert_elev_m": 2.2,
        "grate_capacity_m3s": 1.8,
        "tidal_head_m": 0.0,
        "data_classification": "SIMULATED_DATA"
      }
    },
    {
      "type": "Feature",
      "geometry": {
        "type": "Point",
        "coordinates": [
          72.877,
          19.075
        ]
      },
      "properties": {
        "node_id": "IN_KURLA_02",
        "name": "Inlet Kurla West Low-Point",
        "node_type": "inlet",
        "invert_elev_m": 2.0,
        "grate_capacity_m3s": 1.6,
        "tidal_head_m": 0.0,
        "data_classification": "SIMULATED_DATA"
      }
    },
    {
      "type": "Feature",
      "geometry": {
        "type": "Point",
        "coordinates": [
          72.8735,
          19.082
        ]
      },
      "properties": {
        "node_id": "IN_SION_01",
        "name": "Inlet Sion Hospital Chowk",
        "node_type": "inlet",
        "invert_elev_m": 5.8,
        "grate_capacity_m3s": 2.2,
        "tidal_head_m": 0.0,
        "data_classification": "SIMULATED_DATA"
      }
    },
    {
      "type": "Feature",
      "geometry": {
        "type": "Point",
        "coordinates": [
          72.875,
          19.0725
        ]
      },
      "properties": {
        "node_id": "IN_CST_01",
        "name": "Inlet CST Road East",
        "node_type": "inlet",
        "invert_elev_m": 3.0,
        "grate_capacity_m3s": 1.8,
        "tidal_head_m": 0.0,
        "data_classification": "SIMULATED_DATA"
      }
    },
    {
      "type": "Feature",
      "geometry": {
        "type": "Point",
        "coordinates": [
          72.869,
          19.0755
        ]
      },
      "properties": {
        "node_id": "IN_CST_02",
        "name": "Inlet CST Road West",
        "node_type": "inlet",
        "invert_elev_m": 6.5,
        "grate_capacity_m3s": 2.0,
        "tidal_head_m": 0.0,
        "data_classification": "SIMULATED_DATA"
      }
    },
    {
      "type": "Feature",
      "geometry": {
        "type": "Point",
        "coordinates": [
          72.865,
          19.0785
        ]
      },
      "properties": {
        "node_id": "IN_KALINA_01",
        "name": "Inlet Kalina Central",
        "node_type": "inlet",
        "invert_elev_m": 7.8,
        "grate_capacity_m3s": 2.2,
        "tidal_head_m": 0.0,
        "data_classification": "SIMULATED_DATA"
      }
    },
    {
      "type": "Feature",
      "geometry": {
        "type": "Point",
        "coordinates": [
          72.868,
          19.082
        ]
      },
      "properties": {
        "node_id": "IN_KALINA_02",
        "name": "Inlet Kalina North",
        "node_type": "inlet",
        "invert_elev_m": 7.5,
        "grate_capacity_m3s": 2.0,
        "tidal_head_m": 0.0,
        "data_classification": "SIMULATED_DATA"
      }
    },
    {
      "type": "Feature",
      "geometry": {
        "type": "Point",
        "coordinates": [
          72.866,
          19.066
        ]
      },
      "properties": {
        "node_id": "IN_BKC_01",
        "name": "Inlet BKC North Gate",
        "node_type": "inlet",
        "invert_elev_m": 3.5,
        "grate_capacity_m3s": 3.0,
        "tidal_head_m": 0.0,
        "data_classification": "SIMULATED_DATA"
      }
    },
    {
      "type": "Feature",
      "geometry": {
        "type": "Point",
        "coordinates": [
          72.8645,
          19.0635
        ]
      },
      "properties": {
        "node_id": "IN_BKC_02",
        "name": "Inlet BKC Complex Main",
        "node_type": "inlet",
        "invert_elev_m": 4.0,
        "grate_capacity_m3s": 3.5,
        "tidal_head_m": 0.0,
        "data_classification": "SIMULATED_DATA"
      }
    },
    {
      "type": "Feature",
      "geometry": {
        "type": "Point",
        "coordinates": [
          72.8635,
          19.061
        ]
      },
      "properties": {
        "node_id": "IN_BKC_03",
        "name": "Inlet BKC South Commercial",
        "node_type": "inlet",
        "invert_elev_m": 3.5,
        "grate_capacity_m3s": 3.0,
        "tidal_head_m": 0.0,
        "data_classification": "SIMULATED_DATA"
      }
    },
    {
      "type": "Feature",
      "geometry": {
        "type": "Point",
        "coordinates": [
          72.876,
          19.0645
        ]
      },
      "properties": {
        "node_id": "IN_MITHI_01",
        "name": "Inlet Mithi Approach East",
        "node_type": "inlet",
        "invert_elev_m": 1.8,
        "grate_capacity_m3s": 1.5,
        "tidal_head_m": 0.0,
        "data_classification": "SIMULATED_DATA"
      }
    },
    {
      "type": "Feature",
      "geometry": {
        "type": "Point",
        "coordinates": [
          72.869,
          19.0635
        ]
      },
      "properties": {
        "node_id": "IN_MITHI_02",
        "name": "Inlet Mithi Approach West",
        "node_type": "inlet",
        "invert_elev_m": 3.5,
        "grate_capacity_m3s": 2.0,
        "tidal_head_m": 0.0,
        "data_classification": "SIMULATED_DATA"
      }
    },
    {
      "type": "Feature",
      "geometry": {
        "type": "Point",
        "coordinates": [
          72.864,
          19.069
        ]
      },
      "properties": {
        "node_id": "IN_DHARAVI_01",
        "name": "Inlet Dharavi Link",
        "node_type": "inlet",
        "invert_elev_m": 3.2,
        "grate_capacity_m3s": 1.8,
        "tidal_head_m": 0.0,
        "data_classification": "SIMULATED_DATA"
      }
    },
    {
      "type": "Feature",
      "geometry": {
        "type": "Point",
        "coordinates": [
          72.864,
          19.073
        ]
      },
      "properties": {
        "node_id": "IN_DHARAVI_02",
        "name": "Inlet Dharavi North",
        "node_type": "inlet",
        "invert_elev_m": 3.4,
        "grate_capacity_m3s": 1.8,
        "tidal_head_m": 0.0,
        "data_classification": "SIMULATED_DATA"
      }
    },
    {
      "type": "Feature",
      "geometry": {
        "type": "Point",
        "coordinates": [
          72.883,
          19.0655
        ]
      },
      "properties": {
        "node_id": "IN_EAST_01",
        "name": "Inlet Nehru Nagar",
        "node_type": "inlet",
        "invert_elev_m": 5.2,
        "grate_capacity_m3s": 2.0,
        "tidal_head_m": 0.0,
        "data_classification": "SIMULATED_DATA"
      }
    },
    {
      "type": "Feature",
      "geometry": {
        "type": "Point",
        "coordinates": [
          72.8875,
          19.069
        ]
      },
      "properties": {
        "node_id": "IN_EAST_02",
        "name": "Inlet Tilak Nagar",
        "node_type": "inlet",
        "invert_elev_m": 6.0,
        "grate_capacity_m3s": 2.2,
        "tidal_head_m": 0.0,
        "data_classification": "SIMULATED_DATA"
      }
    },
    {
      "type": "Feature",
      "geometry": {
        "type": "Point",
        "coordinates": [
          72.886,
          19.0745
        ]
      },
      "properties": {
        "node_id": "IN_EAST_03",
        "name": "Inlet Premier Road South",
        "node_type": "inlet",
        "invert_elev_m": 4.0,
        "grate_capacity_m3s": 1.8,
        "tidal_head_m": 0.0,
        "data_classification": "SIMULATED_DATA"
      }
    },
    {
      "type": "Feature",
      "geometry": {
        "type": "Point",
        "coordinates": [
          72.88,
          19.079
        ]
      },
      "properties": {
        "node_id": "IN_EAST_04",
        "name": "Inlet Premier Road North",
        "node_type": "inlet",
        "invert_elev_m": 4.8,
        "grate_capacity_m3s": 2.0,
        "tidal_head_m": 0.0,
        "data_classification": "SIMULATED_DATA"
      }
    },
    {
      "type": "Feature",
      "geometry": {
        "type": "Point",
        "coordinates": [
          72.877,
          19.069
        ]
      },
      "properties": {
        "node_id": "MH_KURLA_MAIN",
        "name": "Manhole Kurla Trunk Junction",
        "node_type": "manhole",
        "invert_elev_m": 1.8,
        "grate_capacity_m3s": 0.0,
        "tidal_head_m": 0.0,
        "data_classification": "SIMULATED_DATA"
      }
    },
    {
      "type": "Feature",
      "geometry": {
        "type": "Point",
        "coordinates": [
          72.871,
          19.0715
        ]
      },
      "properties": {
        "node_id": "MH_CST_MID",
        "name": "Manhole CST Trunk Junction",
        "node_type": "manhole",
        "invert_elev_m": 2.6,
        "grate_capacity_m3s": 0.0,
        "tidal_head_m": 0.0,
        "data_classification": "SIMULATED_DATA"
      }
    },
    {
      "type": "Feature",
      "geometry": {
        "type": "Point",
        "coordinates": [
          72.866,
          19.063
        ]
      },
      "properties": {
        "node_id": "MH_BKC_TRUNK",
        "name": "Manhole BKC Storm Trunk",
        "node_type": "manhole",
        "invert_elev_m": 2.8,
        "grate_capacity_m3s": 0.0,
        "tidal_head_m": 0.0,
        "data_classification": "SIMULATED_DATA"
      }
    },
    {
      "type": "Feature",
      "geometry": {
        "type": "Point",
        "coordinates": [
          72.866,
          19.077
        ]
      },
      "properties": {
        "node_id": "MH_KALINA_JUN",
        "name": "Manhole Kalina Sewer Junction",
        "node_type": "manhole",
        "invert_elev_m": 5.5,
        "grate_capacity_m3s": 0.0,
        "tidal_head_m": 0.0,
        "data_classification": "SIMULATED_DATA"
      }
    },
    {
      "type": "Feature",
      "geometry": {
        "type": "Point",
        "coordinates": [
          72.8845,
          19.0665
        ]
      },
      "properties": {
        "node_id": "MH_EAST_TRUNK",
        "name": "Manhole East Drainage Trunk",
        "node_type": "manhole",
        "invert_elev_m": 4.5,
        "grate_capacity_m3s": 0.0,
        "tidal_head_m": 0.0,
        "data_classification": "SIMULATED_DATA"
      }
    },
    {
      "type": "Feature",
      "geometry": {
        "type": "Point",
        "coordinates": [
          72.874,
          19.062
        ]
      },
      "properties": {
        "node_id": "OF_MITHI_KURLA",
        "name": "Outfall Mithi River (Kurla Gate)",
        "node_type": "outfall",
        "invert_elev_m": 0.8,
        "grate_capacity_m3s": 25.0,
        "tidal_head_m": 2.4,
        "data_classification": "SIMULATED_DATA"
      }
    },
    {
      "type": "Feature",
      "geometry": {
        "type": "Point",
        "coordinates": [
          72.8625,
          19.0605
        ]
      },
      "properties": {
        "node_id": "OF_MITHI_BKC",
        "name": "Outfall Mithi River (BKC Gate)",
        "node_type": "outfall",
        "invert_elev_m": 1.2,
        "grate_capacity_m3s": 35.0,
        "tidal_head_m": 2.4,
        "data_classification": "SIMULATED_DATA"
      }
    },
    {
      "type": "Feature",
      "geometry": {
        "type": "Point",
        "coordinates": [
          72.8605,
          19.067
        ]
      },
      "properties": {
        "node_id": "OF_VAKOLA_NAL",
        "name": "Outfall Vakola Nallah Culvert",
        "node_type": "outfall",
        "invert_elev_m": 1.5,
        "grate_capacity_m3s": 20.0,
        "tidal_head_m": 2.0,
        "data_classification": "SIMULATED_DATA"
      }
    }
  ]
}